start=new Date('2022-11-22T00:00:00.000Z').valueOf();
sats=[{"RCS_SIZE":"LARGE","PERIOD":"95.436","ECCENTRICITY":"0.00012430","PERIAPSIS":"538.823","OBJECT_ID":"2021-115AH","APOAPSIS":"540.542","TLE_LINE1":"1 49755U 21115AH  22325.81702434  .00003400  00000-0  23145-3 0  9998","COUNTRY_CODE":"US","EPOCH":"2022-11-21T19:36:30.902976","MEAN_ANOMALY":"282.9310","FILE":"3666658","REF_FRAME":"TEME","GP_ID":"218435021","TIME_SYSTEM":"UTC","CENTER_NAME":"EARTH","SEMIMAJOR_AXIS":"6917.818","MEAN_MOTION_DOT":"0.00003400","LAUNCH_DATE":"2021-12-02","OBJECT_NAME":"STARLINK-3210","MEAN_MOTION_DDOT":"0.0000000000000","ARG_OF_PERICENTER":"77.1821","CLASSIFICATION_TYPE":"U","INCLINATION":"53.2135","ELEMENT_SET_NO":"999","NORAD_CAT_ID":"49755","BSTAR":"0.00023145000000","RA_OF_ASC_NODE":"153.5226","MEAN_MOTION":"15.08860549","EPHEMERIS_TYPE":"0","TLE_LINE2":"2 49755  53.2135 153.5226 0001243  77.1821 282.9310 15.08860549 53796","DECAY_DATE":null,"SITE":"AFETR","REV_AT_EPOCH":"5379","OBJECT_TYPE":"PAYLOAD","MEAN_ELEMENT_THEORY":"SGP4"},{"TLE_LINE2":"2 49756  53.2161 143.1075 0002093  52.6853 307.4329 15.08850780 53946","SITE":"AFETR","DECAY_DATE":null,"REV_AT_EPOCH":"5394","MEAN_ELEMENT_THEORY":"SGP4","OBJECT_TYPE":"PAYLOAD","MEAN_MOTION":"15.08850780","EPHEMERIS_TYPE":"0","LAUNCH_DATE":"2021-12-02","MEAN_MOTION_DOT":"0.00001546","SEMIMAJOR_AXIS":"6917.847","OBJECT_NAME":"STARLINK-3207","CLASSIFICATION_TYPE":"U","ARG_OF_PERICENTER":"52.6853","MEAN_MOTION_DDOT":"0.0000000000000","INCLINATION":"53.2161","ELEMENT_SET_NO":"999","BSTAR":"0.00011521000000","NORAD_CAT_ID":"49756","RA_OF_ASC_NODE":"143.1075","PERIAPSIS":"538.265","PERIOD":"95.437","RCS_SIZE":"LARGE","ECCENTRICITY":"0.00020930","TLE_LINE1":"1 49756U 21115AJ  22325.90625305  .00001546  00000-0  11521-3 0  9994","APOAPSIS":"541.160","OBJECT_ID":"2021-115AJ","EPOCH":"2022-11-21T21:45:00.263520","COUNTRY_CODE":"US","MEAN_ANOMALY":"307.4329","FILE":"3666658","GP_ID":"218433772","REF_FRAME":"TEME","CENTER_NAME":"EARTH","TIME_SYSTEM":"UTC"},{"NORAD_CAT_ID":"49757","BSTAR":"-0.00006266600000","ELEMENT_SET_NO":"999","RA_OF_ASC_NODE":"143.1429","OBJECT_NAME":"STARLINK-3197","MEAN_MOTION_DOT":"-0.00001286","SEMIMAJOR_AXIS":"6917.836","LAUNCH_DATE":"2021-12-02","INCLINATION":"53.2159","ARG_OF_PERICENTER":"46.8966","MEAN_MOTION_DDOT":"0.0000000000000","CLASSIFICATION_TYPE":"U","FILE":"3666658","EPOCH":"2022-11-21T21:34:24.216096","COUNTRY_CODE":"US","MEAN_ANOMALY":"313.2210","CENTER_NAME":"EARTH","TIME_SYSTEM":"UTC","GP_ID":"218433522","REF_FRAME":"TEME","OBJECT_ID":"2021-115AK","TLE_LINE1":"1 49757U 21115AK  22325.89889139 -.00001286  00000-0 -62666-4 0  9990","APOAPSIS":"541.221","PERIOD":"95.437","RCS_SIZE":"LARGE","ECCENTRICITY":"0.00021970","PERIAPSIS":"538.182","OBJECT_TYPE":"PAYLOAD","MEAN_ELEMENT_THEORY":"SGP4","TLE_LINE2":"2 49757  53.2159 143.1429 0002197  46.8966 313.2210 15.08854364 53948","REV_AT_EPOCH":"5394","DECAY_DATE":null,"SITE":"AFETR","MEAN_MOTION":"15.08854364","EPHEMERIS_TYPE":"0"},{"OBJECT_ID":"2021-115AL","TLE_LINE1":"1 49758U 21115AL  22325.91360842  .00000096  00000-0  24188-4 0  9992","APOAPSIS":"541.778","ECCENTRICITY":"0.00029700","RCS_SIZE":"LARGE","PERIOD":"95.437","PERIAPSIS":"537.669","FILE":"3666658","COUNTRY_CODE":"US","EPOCH":"2022-11-21T21:55:35.767488","MEAN_ANOMALY":"320.9096","TIME_SYSTEM":"UTC","CENTER_NAME":"EARTH","REF_FRAME":"TEME","GP_ID":"218434774","OBJECT_NAME":"STARLINK-3194","MEAN_MOTION_DOT":"0.00000096","SEMIMAJOR_AXIS":"6917.859","LAUNCH_DATE":"2021-12-02","INCLINATION":"53.2161","ARG_OF_PERICENTER":"39.2111","MEAN_MOTION_DDOT":"0.0000000000000","CLASSIFICATION_TYPE":"U","NORAD_CAT_ID":"49758","BSTAR":"0.00002418800000","ELEMENT_SET_NO":"999","RA_OF_ASC_NODE":"143.0901","MEAN_MOTION":"15.08847141","EPHEMERIS_TYPE":"0","TLE_LINE2":"2 49758  53.2161 143.0901 0002970  39.2111 320.9096 15.08847141 53945","REV_AT_EPOCH":"5394","DECAY_DATE":null,"SITE":"AFETR","OBJECT_TYPE":"PAYLOAD","MEAN_ELEMENT_THEORY":"SGP4"},{"CENTER_NAME":"EARTH","TIME_SYSTEM":"UTC","REF_FRAME":"TEME","GP_ID":"218434521","FILE":"3666658","MEAN_ANOMALY":"307.7035","COUNTRY_CODE":"US","EPOCH":"2022-11-21T20:04:19.964352","OBJECT_ID":"2021-115AM","TLE_LINE1":"1 49759U 21115AM  22325.83634218  .00004356  00000-0  29153-3 0  9994","APOAPSIS":"541.344","RCS_SIZE":"LARGE","PERIOD":"95.437","ECCENTRICITY":"0.00023680","PERIAPSIS":"538.068","RA_OF_ASC_NODE":"143.4394","NORAD_CAT_ID":"49759","BSTAR":"0.00029153000000","ELEMENT_SET_NO":"999","INCLINATION":"53.2139","MEAN_MOTION_DDOT":"0.0000000000000","ARG_OF_PERICENTER":"52.4172","CLASSIFICATION_TYPE":"U","OBJECT_NAME":"STARLINK-3204","SEMIMAJOR_AXIS":"6917.841","MEAN_MOTION_DOT":"0.00004356","LAUNCH_DATE":"2021-12-02","EPHEMERIS_TYPE":"0","MEAN_MOTION":"15.08852881","OBJECT_TYPE":"PAYLOAD","MEAN_ELEMENT_THEORY":"SGP4","REV_AT_EPOCH":"5393","DECAY_DATE":null,"SITE":"AFETR","TLE_LINE2":"2 49759  53.2139 143.4394 0002368  52.4172 307.7035 15.08852881 53938"},{"EPHEMERIS_TYPE":"0","MEAN_MOTION":"15.08846440","MEAN_ELEMENT_THEORY":"SGP4","OBJECT_TYPE":"PAYLOAD","SITE":"AFETR","DECAY_DATE":null,"REV_AT_EPOCH":"5393","TLE_LINE2":"2 49760  53.2140 143.6533 0002336  44.1976 315.9203 15.08846440 53936","REF_FRAME":"TEME","GP_ID":"218433272","CENTER_NAME":"EARTH","TIME_SYSTEM":"UTC","COUNTRY_CODE":"US","EPOCH":"2022-11-21T18:55:26.444064","MEAN_ANOMALY":"315.9203","FILE":"3666658","PERIAPSIS":"538.110","RCS_SIZE":"LARGE","PERIOD":"95.437","ECCENTRICITY":"0.00023360","APOAPSIS":"541.342","TLE_LINE1":"1 49760U 21115AN  22325.78850051 -.00000340  00000-0 -32455-5 0  9997","OBJECT_ID":"2021-115AN","RA_OF_ASC_NODE":"143.6533","ELEMENT_SET_NO":"999","BSTAR":"-0.00000324550000","NORAD_CAT_ID":"49760","CLASSIFICATION_TYPE":"U","MEAN_MOTION_DDOT":"0.0000000000000","ARG_OF_PERICENTER":"44.1976","INCLINATION":"53.2140","LAUNCH_DATE":"2021-12-02","SEMIMAJOR_AXIS":"6917.861","MEAN_MOTION_DOT":"-0.00000340","OBJECT_NAME":"STARLINK-3199"},{"ELEMENT_SET_NO":"999","BSTAR":"0.00001939000000","NORAD_CAT_ID":"49761","RA_OF_ASC_NODE":"143.1044","LAUNCH_DATE":"2021-12-02","SEMIMAJOR_AXIS":"6917.900","MEAN_MOTION_DOT":"0.00000020","OBJECT_NAME":"STARLINK-3203","CLASSIFICATION_TYPE":"U","MEAN_MOTION_DDOT":"0.0000000000000","ARG_OF_PERICENTER":"48.4110","INCLINATION":"53.2162","COUNTRY_CODE":"US","MEAN_ANOMALY":"311.7076","EPOCH":"2022-11-21T21:50:18.531744","FILE":"3666658","REF_FRAME":"TEME","GP_ID":"218434023","CENTER_NAME":"EARTH","TIME_SYSTEM":"UTC","PERIAPSIS":"538.197","RCS_SIZE":"LARGE","PERIOD":"95.438","ECCENTRICITY":"0.00022660","APOAPSIS":"541.333","TLE_LINE1":"1 49761U 21115AP  22325.90993671  .00000020  00000-0  19390-4 0  9993","OBJECT_ID":"2021-115AP","MEAN_ELEMENT_THEORY":"SGP4","OBJECT_TYPE":"PAYLOAD","TLE_LINE2":"2 49761  53.2162 143.1044 0002266  48.4110 311.7076 15.08833594 53941","SITE":"AFETR","DECAY_DATE":null,"REV_AT_EPOCH":"5394","MEAN_MOTION":"15.08833594","EPHEMERIS_TYPE":"0"},{"REF_FRAME":"TEME","GP_ID":"218434274","TIME_SYSTEM":"UTC","CENTER_NAME":"EARTH","COUNTRY_CODE":"US","EPOCH":"2022-11-21T20:41:24.509472","MEAN_ANOMALY":"310.5891","FILE":"3666658","RCS_SIZE":"LARGE","PERIOD":"95.437","ECCENTRICITY":"0.00023610","PERIAPSIS":"538.092","OBJECT_ID":"2021-115AQ","TLE_LINE1":"1 49762U 21115AQ  22325.86208923  .00000707  00000-0  62496-4 0  9995","APOAPSIS":"541.358","RA_OF_ASC_NODE":"143.3267","ELEMENT_SET_NO":"999","NORAD_CAT_ID":"49762","BSTAR":"0.00006249600000","ARG_OF_PERICENTER":"49.5307","MEAN_MOTION_DDOT":"0.0000000000000","CLASSIFICATION_TYPE":"U","INCLINATION":"53.2166","SEMIMAJOR_AXIS":"6917.860","MEAN_MOTION_DOT":"0.00000707","LAUNCH_DATE":"2021-12-02","OBJECT_NAME":"STARLINK-3195","EPHEMERIS_TYPE":"0","MEAN_MOTION":"15.08846685","OBJECT_TYPE":"PAYLOAD","MEAN_ELEMENT_THEORY":"SGP4","DECAY_DATE":null,"SITE":"AFETR","REV_AT_EPOCH":"5394","TLE_LINE2":"2 49762  53.2166 143.3267 0002361  49.5307 310.5891 15.08846685 53948"},{"RA_OF_ASC_NODE":"143.9672","NORAD_CAT_ID":"49763","BSTAR":"0.00007066100000","ELEMENT_SET_NO":"999","INCLINATION":"53.2160","MEAN_MOTION_DDOT":"0.0000000000000","ARG_OF_PERICENTER":"36.6089","CLASSIFICATION_TYPE":"U","OBJECT_NAME":"STARLINK-3198","SEMIMAJOR_AXIS":"6917.882","MEAN_MOTION_DOT":"0.00000836","LAUNCH_DATE":"2021-12-02","TIME_SYSTEM":"UTC","CENTER_NAME":"EARTH","REF_FRAME":"TEME","GP_ID":"218435022","FILE":"3666658","EPOCH":"2022-11-21T17:14:44.638944","COUNTRY_CODE":"US","MEAN_ANOMALY":"323.5100","OBJECT_ID":"2021-115AR","APOAPSIS":"541.743","TLE_LINE1":"1 49763U 21115AR  22325.71857221  .00000836  00000-0  70661-4 0  9997","PERIOD":"95.438","RCS_SIZE":"LARGE","ECCENTRICITY":"0.00028860","PERIAPSIS":"537.750","OBJECT_TYPE":"PAYLOAD","MEAN_ELEMENT_THEORY":"SGP4","REV_AT_EPOCH":"5392","DECAY_DATE":null,"SITE":"AFETR","TLE_LINE2":"2 49763  53.2160 143.9672 0002886  36.6089 323.5100 15.08839608 53927","EPHEMERIS_TYPE":"0","MEAN_MOTION":"15.08839608"},{"COUNTRY_CODE":"US","MEAN_ANOMALY":"316.8817","EPOCH":"2022-11-21T20:52:00.877440","FILE":"3666658","GP_ID":"218433773","REF_FRAME":"TEME","TIME_SYSTEM":"UTC","CENTER_NAME":"EARTH","RCS_SIZE":"LARGE","ECCENTRICITY":"0.00028260","PERIOD":"95.438","PERIAPSIS":"537.790","OBJECT_ID":"2021-115AS","APOAPSIS":"541.700","TLE_LINE1":"1 49764U 21115AS  22325.86945460  .00000252  00000-0  33951-4 0  9990","ELEMENT_SET_NO":"999","NORAD_CAT_ID":"49764","BSTAR":"0.00003395100000","RA_OF_ASC_NODE":"143.2869","MEAN_MOTION_DOT":"0.00000252","SEMIMAJOR_AXIS":"6917.880","LAUNCH_DATE":"2021-12-02","OBJECT_NAME":"STARLINK-3206","MEAN_MOTION_DDOT":"0.0000000000000","ARG_OF_PERICENTER":"43.2396","CLASSIFICATION_TYPE":"U","INCLINATION":"53.2152","MEAN_MOTION":"15.08840151","EPHEMERIS_TYPE":"0","OBJECT_TYPE":"PAYLOAD","MEAN_ELEMENT_THEORY":"SGP4","TLE_LINE2":"2 49764  53.2152 143.2869 0002826  43.2396 316.8817 15.08840151 55061","DECAY_DATE":null,"SITE":"AFETR","REV_AT_EPOCH":"5506"}];
